{
  "type": "FeatureCollection",
  "features": [
    {
      "type": "Feature",
      "properties": {
        "norad_id": 67004,
        "name": "STARLINK-35913",
        "group": "last-30-days",
        "lat": 68.03265816830059,
        "lon": 2.638850149686007,
        "alt_km": 299.5824071702109,
        "timestamp": "2025-12-21T14:40:46.636658+00:00",
        "meta_object_name": "STARLINK-35913",
        "meta_object_id": "2025-293B",
        "meta_epoch": "2025-12-21T06:00:00.999648",
        "meta_mean_motion": 15.89493239,
        "meta_eccentricity": 0.00042217,
        "meta_inclination": 69.9937,
        "meta_ra_of_asc_node": 299.0877,
        "meta_arg_of_pericenter": 273.094,
        "meta_mean_anomaly": 259.0376,
        "meta_ephemeris_type": 0,
        "meta_classification_type": "U",
        "meta_norad_cat_id": 67004,
        "meta_element_set_no": 999,
        "meta_rev_at_epoch": 154,
        "meta_bstar": -0.00061846243,
        "meta_mean_motion_dot": -0.00182381,
        "meta_mean_motion_ddot": 1.47256e-05,
        "tle_line1": "1 67004U 25293B   25355.25001157 -.00182381  14726-4 -61846-3 0  9996",
        "tle_line2": "2 67004  69.9937 299.0877 0004221 273.0940 259.0376 15.89493239  1543"
      },
      "geometry": {
        "type": "Point",
        "coordinates": [
          2.638850149686007,
          68.03265816830059
        ]
      }
    },
    {
      "type": "Feature",
      "properties": {
        "norad_id": 67005,
        "name": "STARLINK-36148",
        "group": "last-30-days",
        "lat": 68.8903535098391,
        "lon": 8.736184287914615,
        "alt_km": 299.4610344957837,
        "timestamp": "2025-12-21T14:40:46.636669+00:00",
        "meta_object_name": "STARLINK-36148",
        "meta_object_id": "2025-293C",
        "meta_epoch": "2025-12-21T06:00:00.999648",
        "meta_mean_motion": 15.89523747,
        "meta_eccentricity": 0.00042534,
        "meta_inclination": 69.994,
        "meta_ra_of_asc_node": 299.0854,
        "meta_arg_of_pericenter": 274.1799,
        "meta_mean_anomaly": 260.3066,
        "meta_ephemeris_type": 0,
        "meta_classification_type": "U",
        "meta_norad_cat_id": 67005,
        "meta_element_set_no": 999,
        "meta_rev_at_epoch": 154,
        "meta_bstar": -0.00062708107,
        "meta_mean_motion_dot": -0.00185188,
        "meta_mean_motion_ddot": 1.5062036e-05,
        "tle_line1": "1 67005U 25293C   25355.25001157 -.00185188  15062-4 -62708-3 0  9997",
        "tle_line2": "2 67005  69.9940 299.0854 0004253 274.1799 260.3066 15.89523747  1541"
      },
      "geometry": {
        "type": "Point",
        "coordinates": [
          8.736184287914615,
          68.8903535098391
        ]
      }
    },
    {
      "type": "Feature",
      "properties": {
        "norad_id": 67006,
        "name": "STARLINK-36156",
        "group": "last-30-days",
        "lat": 69.94539432989333,
        "lon": 24.50959477157131,
        "alt_km": 299.24547121644537,
        "timestamp": "2025-12-21T14:40:46.636679+00:00",
        "meta_object_name": "STARLINK-36156",
        "meta_object_id": "2025-293D",
        "meta_epoch": "2025-12-21T06:00:00.999648",
        "meta_mean_motion": 15.89578983,
        "meta_eccentricity": 0.00042304,
        "meta_inclination": 69.9939,
        "meta_ra_of_asc_node": 299.0781,
        "meta_arg_of_pericenter": 273.4482,
        "meta_mean_anomaly": 266.5924,
        "meta_ephemeris_type": 0,
        "meta_classification_type": "U",
        "meta_norad_cat_id": 67006,
        "meta_element_set_no": 999,
        "meta_rev_at_epoch": 154,
        "meta_bstar": -0.00063148128,
        "meta_mean_motion_dot": -0.00186992,
        "meta_mean_motion_ddot": 1.5285767e-05,
        "tle_line1": "1 67006U 25293D   25355.25001157 -.00186992  15286-4 -63148-3 0  9999",
        "tle_line2": "2 67006  69.9939 299.0781 0004230 273.4482 266.5924 15.89578983  1548"
      },
      "geometry": {
        "type": "Point",
        "coordinates": [
          24.50959477157131,
          69.94539432989333
        ]
      }
    },
    {
      "type": "Feature",
      "properties": {
        "norad_id": 67007,
        "name": "STARLINK-36123",
        "group": "last-30-days",
        "lat": 69.6441108100505,
        "lon": 17.165341521104978,
        "alt_km": 299.3738344416315,
        "timestamp": "2025-12-21T14:40:46.636691+00:00",
        "meta_object_name": "STARLINK-36123",
        "meta_object_id": "2025-293E",
        "meta_epoch": "2025-12-21T06:00:00.999648",
        "meta_mean_motion": 15.89561571,
        "meta_eccentricity": 0.0004282,
        "meta_inclination": 69.9937,
        "meta_ra_of_asc_node": 299.081,
        "meta_arg_of_pericenter": 275.6732,
        "meta_mean_anomaly": 261.8478,
        "meta_ephemeris_type": 0,
        "meta_classification_type": "U",
        "meta_norad_cat_id": 67007,
        "meta_element_set_no": 999,
        "meta_rev_at_epoch": 154,
        "meta_bstar": -0.00071121186,
        "meta_mean_motion_dot": -0.00210258,
        "meta_mean_motion_ddot": 1.825465e-05,
        "tle_line1": "1 67007U 25293E   25355.25001157 -.00210258  18255-4 -71121-3 0  9992",
        "tle_line2": "2 67007  69.9937 299.0810 0004282 275.6732 261.8478 15.89561571  1546"
      },
      "geometry": {
        "type": "Point",
        "coordinates": [
          17.165341521104978,
          69.6441108100505
        ]
      }
    },
    {
      "type": "Feature",
      "properties": {
        "norad_id": 67008,
        "name": "STARLINK-36163",
        "group": "last-30-days",
        "lat": 69.87189839056381,
        "lon": 34.22550650682352,
        "alt_km": 299.18030030888167,
        "timestamp": "2025-12-21T14:40:46.636701+00:00",
        "meta_object_name": "STARLINK-36163",
        "meta_object_id": "2025-293F",
        "meta_epoch": "2025-12-21T06:00:00.999648",
        "meta_mean_motion": 15.89607729,
        "meta_eccentricity": 0.00042192,
        "meta_inclination": 69.9938,
        "meta_ra_of_asc_node": 299.0744,
        "meta_arg_of_pericenter": 273.0528,
        "meta_mean_anomaly": 270.2857,
        "meta_ephemeris_type": 0,
        "meta_classification_type": "U",
        "meta_norad_cat_id": 67008,
        "meta_element_set_no": 999,
        "meta_rev_at_epoch": 154,
        "meta_bstar": -0.00064727345,
        "meta_mean_motion_dot": -0.00191911,
        "meta_mean_motion_ddot": 1.5890259e-05,
        "tle_line1": "1 67008U 25293F   25355.25001157 -.00191911  15890-4 -64727-3 0  9993",
        "tle_line2": "2 67008  69.9938 299.0744 0004219 273.0528 270.2857 15.89607729  1540"
      },
      "geometry": {
        "type": "Point",
        "coordinates": [
          34.22550650682352,
          69.87189839056381
        ]
      }
    },
    {
      "type": "Feature",
      "properties": {
        "norad_id": 67009,
        "name": "STARLINK-36118",
        "group": "last-30-days",
        "lat": 69.4166472267027,
        "lon": 42.04001864711961,
        "alt_km": 299.17614830061575,
        "timestamp": "2025-12-21T14:40:46.636711+00:00",
        "meta_object_name": "STARLINK-36118",
        "meta_object_id": "2025-293G",
        "meta_epoch": "2025-12-21T06:00:00.999648",
        "meta_mean_motion": 15.89644708,
        "meta_eccentricity": 0.00042643,
        "meta_inclination": 69.9937,
        "meta_ra_of_asc_node": 299.0712,
        "meta_arg_of_pericenter": 275.8053,
        "meta_mean_anomaly": 270.2425,
        "meta_ephemeris_type": 0,
        "meta_classification_type": "U",
        "meta_norad_cat_id": 67009,
        "meta_element_set_no": 999,
        "meta_rev_at_epoch": 148,
        "meta_bstar": -0.00069950568,
        "meta_mean_motion_dot": -0.00207679,
        "meta_mean_motion_ddot": 1.7922284e-05,
        "tle_line1": "1 67009U 25293G   25355.25001157 -.00207679  17922-4 -69951-3 0  9995",
        "tle_line2": "2 67009  69.9937 299.0712 0004264 275.8053 270.2425 15.89644708  1480"
      },
      "geometry": {
        "type": "Point",
        "coordinates": [
          42.04001864711961,
          69.4166472267027
        ]
      }
    },
    {
      "type": "Feature",
      "properties": {
        "norad_id": 67010,
        "name": "STARLINK-36189",
        "group": "last-30-days",
        "lat": 67.79625386945293,
        "lon": 54.80685135195601,
        "alt_km": 299.1104162433303,
        "timestamp": "2025-12-21T14:40:46.636723+00:00",
        "meta_object_name": "STARLINK-36189",
        "meta_object_id": "2025-293H",
        "meta_epoch": "2025-12-21T06:00:00.999648",
        "meta_mean_motion": 15.89700147,
        "meta_eccentricity": 0.00042125,
        "meta_inclination": 69.9937,
        "meta_ra_of_asc_node": 299.0654,
        "meta_arg_of_pericenter": 274.9471,
        "meta_mean_anomaly": 275.9454,
        "meta_ephemeris_type": 0,
        "meta_classification_type": "U",
        "meta_norad_cat_id": 67010,
        "meta_element_set_no": 999,
        "meta_rev_at_epoch": 154,
        "meta_bstar": -0.00069216213,
        "meta_mean_motion_dot": -0.00206079,
        "meta_mean_motion_ddot": 1.7718478e-05,
        "tle_line1": "1 67010U 25293H   25355.25001157 -.00206079  17718-4 -69216-3 0  9997",
        "tle_line2": "2 67010  69.9937 299.0654 0004212 274.9471 275.9454 15.89700147  1545"
      },
      "geometry": {
        "type": "Point",
        "coordinates": [
          54.80685135195601,
          67.79625386945293
        ]
      }
    }
  ]
}